COSMOS 2425 (716)       
1 29670U 06062A   21011.31212652  .00000050  00000-0  00000-0 0  9990
2 29670  64.8874 260.7614 0024565 348.0110 203.1081  2.13107630109321
COSMOS 2433 (720)       
1 32275U 07052A   21016.27473236 -.00000061  00000-0  00000-0 0  9995
2 32275  66.0358  21.8418 0005359 256.0999 322.0743  2.13104260102941
COSMOS 2432 (719)       
1 32276U 07052B   21016.28422394 -.00000061  00000-0  00000-0 0  9996
2 32276  66.0486  21.9330 0011644 316.8132 218.2776  2.13103430102946
COSMOS 2434 (721)       
1 32393U 07065A   21016.37488671  .00000017  00000-0  00000-0 0  9990
2 32393  64.5033 259.1190 0003691  71.3876 111.6023  2.13103078101653
COSMOS 2436 (723)       
1 32395U 07065C   21016.34386473  .00000017  00000-0  00000-0 0  9996
2 32395  64.5112 259.1709 0015766   2.5448 292.8021  2.13102930101584
COSMOS 2456 (730)       
1 36111U 09070A   21016.46776029  .00000018  00000-0  00000-0 0  9998
2 36111  64.2540 138.7943 0002399 335.8479  90.9596  2.13099143 86321
COSMOS 2457 (733)       
1 36112U 09070B   21016.32192623  .00000016  00000-0  00000-0 0  9994
2 36112  64.2368 138.6876 0006471 153.9693 284.1208  2.13101384 86324
COSMOS 2459 (731)       
1 36400U 10007A   21016.42438106 -.00000061  00000-0  00000-0 0  9997
2 36400  65.9340  20.7809 0025555 343.5469 205.5322  2.13105071 84667
COSMOS 2461 (735)       
1 36401U 10007B   21016.42293693 -.00000061  00000-0  00000-0 0  9998
2 36401  65.9294  20.7454 0019551 359.2809 190.7003  2.13103723 84677
COSMOS 2460 (732)       
1 36402U 10007C   21016.07393384 -.00000062  00000-0  00000-0 0  9999
2 36402  65.9166  20.7163 0002672 267.3382 318.1893  2.13106576 84665
COSMOS 2464 (736)       
1 37139U 10041C   21016.21003260  .00000018  00000-0  00000-0 0  9992
2 37139  64.1029 258.4572 0028641  11.4076 267.1514  2.13100767 80720
COSMOS 2471 (701K)      
1 37372U 11009A   21016.33884851 -.00000061  00000-0  00000-0 0  9991
2 37372  65.9143  20.6465 0010607 233.9206 358.3629  2.13107402 76946
COSMOS 2476 (744)       
1 37867U 11064A   21016.39712892  .00000019  00000-0  00000-0 0  9994
2 37867  64.5510 139.9495 0019235 233.2111  40.4324  2.13101832 71665
COSMOS 2477 (745)       
1 37868U 11064B   21016.37680007  .00000018  00000-0  00000-0 0  9994
2 37868  64.5589 140.0090 0016679 233.1876 203.2687  2.13101663 71621
COSMOS 2475 (743)       
1 37869U 11064C   21016.45037528  .00000019  00000-0  00000-0 0  9999
2 37869  64.5660 140.0097 0019985 256.2824 194.2027  2.13101826 71630
COSMOS 2485 (747)       
1 39155U 13019A   21016.43130934  .00000019  00000-0  00000-0 0  9994
2 39155  64.7179 140.2640 0019747 228.3673 116.0272  2.13101834 60137
COSMOS 2492 (754)       
1 39620U 14012A   21016.40513833 -.00000062  00000-0  00000-0 0  9994
2 39620  65.8070  20.4592 0014857 315.7355  43.5031  2.13103250 53083
COSMOS 2500 (755)       
1 40001U 14032A   21016.34716170 -.00000062  00000-0  00000-0 0  9993
2 40001  65.7457  20.3596 0008081 221.4979 313.2574  2.13102508 51303
COSMOS 2501 (702K)      
1 40315U 14075A   21016.27616699  .00000016  00000-0  00000-0 0  9993
2 40315  63.8162 259.3195 0015724 210.2031  75.9122  2.13101355 47708
COSMOS 2514 (751)       
1 41330U 16008A   21016.45901418 -.00000062  00000-0  00000-0 0  9997
2 41330  65.5481  20.1759 0011681 224.7989 218.6167  2.13102857 38476
COSMOS 2516 (753)       
1 41554U 16032A   21016.27013270  .00000016  00000-0  00000-0 0  9990
2 41554  64.0402 259.4527 0011912 219.6516 330.8684  2.13106620 36074
COSMOS 2522 (752)       
1 42939U 17055A   21016.37154113  .00000016  00000-0  00000-0 0  9997
2 42939  64.2742 259.6904 0006435 255.0409 239.1443  2.13102091 25835
COSMOS 2527 (756)       
1 43508U 18053A   21016.59594949  .00000020  00000-0  00000-0 0  9993
2 43508  64.8817 140.1510 0006956 220.1245 118.2020  2.13102435 20120
COSMOS 2529 (757)       
1 43687U 18086A   21016.40922628  .00000015  00000-0  00000-0 0  9990
2 43687  64.4874 259.8677 0009145 279.2418 199.4156  2.13102104 17141
COSMOS 2534 (758)       
1 44299U 19030A   21016.55118919  .00000014  00000-0  00000+0 0  9994
2 44299  64.5594 259.6987 0012746 295.5742  66.9151  2.13101998 12794
COSMOS 2544 (759)       
1 44850U 19088A   21016.33483363  .00000019  00000-0  00000-0 0  9990
2 44850  64.8662 140.0224 0010174 258.7827 283.1170  2.13102308  8561
COSMOS 2545 (760)       
1 45358U 20018A   21016.55167616 -.00000063  00000-0  00000-0 0  9993
2 45358  64.8784  21.2072 0011558 253.9749 304.4916  2.13102763  6511
